[{"OBJECT_NAME":"STARLINK-31306","OBJECT_ID":"2024-020A","EPOCH":"2026-03-09T22:41:18.531168","MEAN_MOTION":15.30186295,"ECCENTRICITY":0.00020004,"INCLINATION":53.1638,"RA_OF_ASC_NODE":320.9951,"ARG_OF_PERICENTER":52.9033,"MEAN_ANOMALY":307.215,"EPHEMERIS_TYPE":0,"CLASSIFICATION_TYPE":"U","NORAD_CAT_ID":58876,"ELEMENT_SET_NO":999,"REV_AT_EPOCH":11929,"BSTAR":4.162504e-6,"MEAN_MOTION_DOT":-2.36e-6,"MEAN_MOTION_DDOT":0},{"OBJECT_NAME":"YAOGAN-43 01D","OBJECT_ID":"2024-148D","EPOCH":"2026-03-09T10:27:16.254720","MEAN_MOTION":15.28369377,"ECCENTRICITY":0.00025569,"INCLINATION":35.001,"RA_OF_ASC_NODE":61.7102,"ARG_OF_PERICENTER":326.2473,"MEAN_ANOMALY":33.808,"EPHEMERIS_TYPE":0,"CLASSIFICATION_TYPE":"U","NORAD_CAT_ID":60461,"ELEMENT_SET_NO":999,"REV_AT_EPOCH":8700,"BSTAR":0.00037765912,"MEAN_MOTION_DOT":0.00010676,"MEAN_MOTION_DDOT":0}]
